[{"OBJECT_NAME":"HAWK-10A","OBJECT_ID":"2024-149CA","EPOCH":"2026-03-09T19:11:42.074592","MEAN_MOTION":14.96174213,"ECCENTRICITY":0.00043334,"INCLINATION":97.6943,"RA_OF_ASC_NODE":146.4192,"ARG_OF_PERICENTER":57.1994,"MEAN_ANOMALY":302.9645,"EPHEMERIS_TYPE":0,"CLASSIFICATION_TYPE":"U","NORAD_CAT_ID":60540,"ELEMENT_SET_NO":999,"REV_AT_EPOCH":8512,"BSTAR":0.00019454,"MEAN_MOTION_DOT":2.135e-5,"MEAN_MOTION_DDOT":0},{"OBJECT_NAME":"STARLINK-34362","OBJECT_ID":"2025-123B","EPOCH":"2026-03-09T22:00:01.999584","MEAN_MOTION":14.98350235,"ECCENTRICITY":0.00034932,"INCLINATION":70.0006,"RA_OF_ASC_NODE":193.9703,"ARG_OF_PERICENTER":271.9411,"MEAN_ANOMALY":332.5424,"EPHEMERIS_TYPE":0,"CLASSIFICATION_TYPE":"U","NORAD_CAT_ID":64292,"ELEMENT_SET_NO":999,"REV_AT_EPOCH":576,"BSTAR":-0.0027762932,"MEAN_MOTION_DOT":-0.00033082,"MEAN_MOTION_DDOT":0}]
